#aV2015  1  4  0  0  0.00000000     288 DD+AD WGS84 FIT  NGA
## 1826      0.00000000   300.00000000 57026 0.0000000000000
+   32     1  2  3  4  5  6  7  8  9 10 11 12 13 14 15 16 17
+         18 19 20 21 22 23 24 25 26 27 28 29 30 31 32  0  0
+          0  0  0  0  0  0  0  0  0  0  0  0  0  0  0  0  0
+          0  0  0  0  0  0  0  0  0  0  0  0  0  0  0  0  0
+          0  0  0  0  0  0  0  0  0  0  0  0  0  0  0  0  0
++         2  2  2  2  2  2  2  2  2  2  2  2  2  2  2  2  2
++         2  2  2  2  2  2  2  2  2  2  2  2  2  2  2  0  0
++         0  0  0  0  0  0  0  0  0  0  0  0  0  0  0  0  0
++         0  0  0  0  0  0  0  0  0  0  0  0  0  0  0  0  0
++         0  0  0  0  0  0  0  0  0  0  0  0  0  0  0  0  0
%c cc cc ccc ccc cccc cccc cccc cccc ccccc ccccc ccccc ccccc
%c cc cc ccc ccc cccc cccc cccc cccc ccccc ccccc ccccc ccccc
%f  0.0000000  0.000000000  0.00000000000  0.000000000000000
%f  0.0000000  0.000000000  0.00000000000  0.000000000000000
%i    0    0    0    0      0      0      0      0         0
%i    0    0    0    0      0      0      0      0         0
/*      NGA, ST. LOUIS,MO.                                  
/*   EPHEMERIS COMPUTED FROM  1 DAYS OF DATA                
/*   EPOCHA SMOOTHER                                       
/* CCCCCCCCCCCCCCCCCCCCCCCCCCCCCCCCCCCCCCCCCCCCCCCCCCCCCCCCC
*  2015  1  4 15 40  0.00000000
P  1   -983.585848  16251.849673 -21004.831215    -10.509416                    
V  1 -24889.723670   9376.208415   8602.229747      0.003536                    
P  2  21197.605883 -14479.504361   6081.693734    539.885113                    
V  2   8284.885081    280.523737 -30306.015276      0.022364                    
P  3   7726.727238  19837.091190 -15850.390394    125.616626                    
V  3 -17262.598931 -10597.699030 -21716.975823      0.264623                    
P  4 -11538.655979  17842.456197 -16086.458690     -5.174232                    
V  4 -19320.900959   5778.077521  20935.137058     -0.005601                    
P  5  11747.541014 -10443.152552  21370.467725   -297.289008                    
V  5  21641.073100  16644.054495  -3577.035520      0.049684                    
P  6  25013.810541  -4948.524490  -7415.566280     42.780408                    
V  6  -7637.035729   6090.251561 -29886.577078      0.095600                    
P  7  12616.972986  10497.245529  21053.234565    428.521443                    
V  7 -24385.077035  10115.645337   9267.779579      0.034010                    
P  8 -18890.820584  13544.008272  12409.568562     17.017131                    
V  8 -15555.752591   2378.898103 -27335.825342      0.002291                    
P  9   8693.635030  19553.821888  15720.905397    -45.544506                    
V  9  -4445.040655  19584.120390 -21901.115310     -0.106403                    
P 10  22722.762568   6376.054061  12215.540672   -157.318790                    
V 10  11017.033164  11884.344615 -25475.404599     -0.016991                    
P 11  -5072.342354  21296.113518 -15464.940204   -548.473568                    
V 11 -16350.718551  10270.046603  20347.871398     -0.027073                    
P 12  -4520.895998 -19172.875019 -17999.498678    258.795781                    
V 12  17964.857172  13666.119483 -18942.201643      0.029042                    
P 13  13400.232935 -19186.927499  12611.809934    -75.705390                    
V 13  -2001.355753  16121.619641  26173.473089     -0.034405                    
P 14 -14902.317544  -1620.744581 -21691.844645     99.963148                    
V 14   5442.302428 -27545.411084  -1803.525725     -0.035591                    
P 15   2410.244750 -26272.380816    291.659912   -224.360218                    
V 15   3871.974177    793.790269  31367.358774     -0.022437                    
P 16 -11921.370678   8816.047293  22008.053479   -167.716756                    
V 16 -21112.873954 -18342.887899  -3721.737586      0.031060                    
P 17  14417.470437   3726.736627 -21717.482323   -148.041534                    
V 17  -4817.047589  27801.877338   1334.340000     -0.022008                    
P 18 -21149.110066 -16344.495393    835.896590    369.925249                    
V 18   2584.657635  -2655.174235  30714.327260      0.026785                    
P 19  -8553.075275  24475.172764   4337.883379   -495.292352                    
V 19  -1591.535790  -6292.468251  31578.225038     -0.015784                    
P 20  15920.832019  19137.283776  -9633.429143    274.953941                    
V 20 -11864.298112  -3782.099112 -27553.628250      0.042152                    
P 21 -18137.253331  -7310.862317  18814.837042   -404.210236                    
V 21  20040.966225 -10298.167313  15485.014199     -0.022982                    
P 22 -23206.340400  -6822.823951 -10946.330155    303.866349                    
V 22  -9459.961948 -11165.943832  26323.032237      0.038144                    
P 23   1846.590942  25288.454435   7258.160624    -79.334949                    
V 23  -4499.592742   8646.916853 -29931.383152     -0.027070                    
P 24   4388.407955 -17166.300357 -19767.534192    -41.213653                    
V 24  23538.656572  -8846.151861  13051.699797     -0.006806                    
P 25 -16240.098022 -19415.603636  -8377.358311      5.337424                    
V 25   9539.910034   4744.503114 -29620.276926     -0.023383                    
P 26  12161.194597 -20572.575850  10620.902591   -180.870500                    
V 26   -827.622674  14757.737758  28081.493664     -0.132961                    
P 27 -12303.663319  18608.917425  14339.966939     41.951972                    
V 27    211.501779 -18363.965993  24075.774237      0.026900                    
P 28  21957.045143  12742.271463  -7363.077369    410.112492                    
V 28   6401.013591   8099.231180  30423.880268      0.027521                    
P 29  -5665.538575 -21932.268300  13928.221021    583.849357                    
V 29   4990.234866 -16978.998716 -24722.277600      0.023786                    
P 30  21617.840930   3903.407351  14962.247147    -86.283990                    
V 30 -17356.828901   7981.141632  22947.849860     -0.003796                    
P 31 -25515.874889   6402.184930  -4650.724136    326.134790                    
V 31   4911.715841  -4023.306983 -31166.002041     -0.007135                    
P 32  -5242.763658  15583.066222 -20948.458101   -255.177494                    
V 32 -20086.180068 -17379.570748  -7357.904070      0.086483                    
EOF
